[{"OBJECT_NAME":"ONEWEB-0323","OBJECT_ID":"2021-075AH","EPOCH":"2026-03-09T20:32:58.303968","MEAN_MOTION":13.12442331,"ECCENTRICITY":0.00017294,"INCLINATION":87.9005,"RA_OF_ASC_NODE":10.3615,"ARG_OF_PERICENTER":56.5546,"MEAN_ANOMALY":303.5748,"EPHEMERIS_TYPE":0,"CLASSIFICATION_TYPE":"U","NORAD_CAT_ID":49106,"ELEMENT_SET_NO":999,"REV_AT_EPOCH":22152,"BSTAR":-0.00083418907,"MEAN_MOTION_DOT":-2.87e-6,"MEAN_MOTION_DDOT":0},{"OBJECT_NAME":"COSMOS 2251 DEB","OBJECT_ID":"1993-036TR","EPOCH":"2026-03-09T17:08:42.195264","MEAN_MOTION":13.70649647,"ECCENTRICITY":0.03285514,"INCLINATION":74.085,"RA_OF_ASC_NODE":315.0753,"ARG_OF_PERICENTER":65.7809,"MEAN_ANOMALY":297.7272,"EPHEMERIS_TYPE":0,"CLASSIFICATION_TYPE":"U","NORAD_CAT_ID":34472,"ELEMENT_SET_NO":999,"REV_AT_EPOCH":84918,"BSTAR":0.0015683222,"MEAN_MOTION_DOT":2.021e-5,"MEAN_MOTION_DDOT":0}]
